ONEWEB-0435             
1 51632U 22012L   24322.08561192 -.00000239  00000+0 -72181-3 0  9996
2 51632  87.8894 151.1970 0001787  73.4042 286.7281 13.10368792135014
ONEWEB-0436             
1 51633U 22012M   24321.86952136  .00000052  00000+0  10195-3 0  9992
2 51633  87.9071 120.8586 0001537  83.2834 276.8472 13.17648348138942
ONEWEB-0438             
1 51634U 22012N   24322.60351263  .00000624  00000+0  17524-2 0  9997
2 51634  87.8892 151.0947 0001582  94.7814 265.3494 13.10374050135128
ONEWEB-0439             
1 51635U 22012P   24322.83594991  .00000588  00000+0  16471-2 0  9999
2 51635  87.8892 151.0347 0001585  85.7497 274.3812 13.10371045135128
ONEWEB-0442             
1 51636U 22012Q   24321.93787296 -.00000022  00000+0 -89629-4 0  9994
2 51636  87.9077 120.8852 0001506 119.1356 240.9926 13.17648610138949
ONEWEB-0443             
1 51637U 22012R   24321.88133628  .00000078  00000+0  16727-3 0  9990
2 51637  87.9076 120.9069 0001899  97.8701 262.2646 13.17648330138980
ONEWEB-0444             
1 51638U 22012S   24321.83331901  .00000681  00000+0  19136-2 0  9996
2 51638  87.8889 151.2475 0001696  82.7050 277.4270 13.10372604135018
ONEWEB-0445             
1 51639U 22012T   24322.77117180 -.00000101  00000+0 -32576-3 0  9995
2 51639  87.8881 151.0266 0001351  92.9681 267.1601 13.10368247135133
